STARLINK-2022           
1 47643U 21012Z   24138.27373480  .00010728  00000+0  73759-3 0  9993
2 47643  53.0526 140.8259 0001291  94.9487 265.1650 15.06420905180578
